C/2020 H11 (PANSTARRS-Lemmon),e,151.3685,303.0584,91.3480,6531,0.0000019,0.99883304,0.0000,09/11.5798/2020,2000,g  8.5,4.0
# From MPEC 2023-KD6
C/2020 J1 (SONEAR),e,142.3101,226.5602,341.5247,4476,0.0000033,0.99925292,0.0000,04/17.5909/2021,2000,g  8.5,3.2
# From MPC191585
C/2020 K1 (PANSTARRS),e,89.6705,94.3672,213.9562,1710,0.0000139,0.99820248,0.0000,05/08.4097/2023,2000,g  5.5,4.0
# From MPEC 2021-N06
C/2020 K2 (PANSTARRS),e,90.9851,288.4369,67.2882,261252,0.0000000,0.99996601,0.0000,08/03.3617/2020,2000,g  6.5,4.0
# From MPEC 2023-N01
C/2020 K6 (Rankin),h,09/14.0501/2021,103.6266,291.6038,44.2462,1.001369,5.864936,2000,8.0,4.0
# From MPEC 2023-A50
C/2020 K7 (PANSTARRS),e,32.0442,286.1347,358.0145,93.75658,0.0010857,0.93191724,2.5139,02/25.0/2026,2000,g  8.0,4.0
# From MPEC 2021-BE3
P/2020 K9 (Lemmon-PANSTARRS),e,23.1853,166.3048,197.0688,4.208474,0.1141608,0.31981850,210.1562,02/25.0/2026,2000,g 12.5,4.0
# From MPEC 2023-N01
A/2020 M4,e,160.0944,348.6061,104.4322,6192,0.0000020,0.99904092,0.0000,11/22.0194/2020,2000,g 14.5,2.0
# From MPEC 2024-NE4
P/2020 MK4 (PANSTARRS),e,6.7807,0.6541,94.6543,6.226095,0.0634425,0.01566668,332.4773,02/25.0/2026,2000,g  8.0,4.0
# From MPEC 2023-FK0
C/2020 M5 (ATLAS),h,08/19.5806/2021,93.1593,351.9854,126.2503,1.000054,3.000845,2000,9.0,4.0
# From MPEC 2024-JU4
C/2020 O2 (Amaral),e,71.7657,256.7815,10.1288,5424,0.0000025,0.99910522,0.0000,08/26.8836/2021,2000,g  8.0,3.2
# From MPEC 2023-C45
P/2020 O3 (PANSTARRS),e,8.4443,266.8148,81.0304,4.645919,0.0984230,0.10242589,182.9701,02/25.0/2026,2000,g 12.0,4.0
# From MPEC 2024-JU4
C/2020 P3 (ATLAS),h,04/23.2133/2021,61.8341,19.4903,82.3735,1.003948,6.818261,2000,6.0,4.0
# From MPEC 2020-QN1
C/2020 P4-B (SOHO),h,08/07.6799/2020,26.8797,171.7612,173.3803,1.000557,0.102268,2000,0.0,6.0
# From MPEC 2020-QN1
C/2020 P4-C (SOHO),h,08/05.3516/2020,37.2576,165.3466,115.9198,1.013258,0.089519,2000,-1.6,6.0
# From MPC191586
C/2020 PV6 (PANSTARRS),e,128.1338,329.1176,71.2517,41.45467,0.0036927,0.94474156,5.9586,02/25.0/2026,2000,g 11.5,4.0
# From MPEC 2023-CD7
C/2020 Q2 (PANSTARRS),e,3.3365,179.8447,118.1128,10.59181,0.0285923,0.48850078,63.6063,02/25.0/2026,2000,g 12.0,3.2
# From MPEC 2024-F34
C/2020 R2 (PANSTARRS),e,53.2038,195.1450,211.8939,425.7887,0.0001122,0.98895803,0.0000,02/25.2024/2022,2000,g  9.0,4.0
# From MPEC 2023-C45
P/2020 R5 (PANSTARRS),e,11.4394,272.9378,82.7213,4.994556,0.0882996,0.31278352,185.5197,02/25.0/2026,2000,g  9.5,6.0
# From MPEC 2024-PC5
C/2020 R7 (ATLAS),e,114.9039,268.3058,347.7155,4281,0.0000035,0.99931107,0.0000,09/15.8825/2022,2000,g  7.0,3.2
# From MPEC 2024-N80
C/2020 S4 (PANSTARRS),h,02/09.7911/2023,20.5718,117.6751,21.0961,1.003128,3.371606,2000,8.5,3.2
# From MPEC 2021-BE3
P/2020 S5 (PANSTARRS),e,12.3397,316.0094,53.2579,4.059601,0.1204978,0.33700976,244.3704,02/25.0/2026,2000,g 14.5,4.0
# From MPEC 2022-TD3
C/2020 T2 (Palomar),e,27.8429,83.0069,150.3163,263.8437,0.0002300,0.99223447,0.0000,07/10.6776/2021,2000,g 11.0,3.2
# From MPEC 2024-TD8
C/2020 U4 (PANSTARRS),h,04/10.3921/2022,167.0039,120.4048,70.2004,1.001703,5.363089,2000,7.0,4.0
# From MPEC 2024-GJ3
C/2020 U5 (PANSTARRS),e,97.3164,107.3132,75.4707,126881,0.0000000,0.99997040,0.0000,04/28.6875/2022,2000,g  8.0,4.0
# From MPC188409
C/2020 V2 (ZTF),h,05/08.6184/2023,131.6080,212.4280,162.4921,1.001221,2.229758,2000,4.9,4.0
# From MPEC 2023-D72
P/2020 V3 (PANSTARRS),e,23.0137,198.2726,249.9350,8.412855,0.0403914,0.25776735,74.0744,02/25.0/2026,2000,g  8.3,4.0
# From MPC188409
P/2020 V4 (Rankin),e,14.2315,203.4875,257.3386,9.405001,0.0341716,0.45160097,57.3974,02/25.0/2026,2000,g  9.0,4.0
# From MPEC 2021-BE3
P/2020 W1 (Rankin),e,10.7761,124.3821,265.4168,7.227295,0.0507271,0.26499639,108.9498,02/25.0/2026,2000,g 10.0,4.0
# From MPEC 2024-PC5
P/2020 WJ5 (Lemmon),e,22.2896,177.7444,338.1517,6.016034,0.0667942,0.17232105,113.5171,02/25.0/2026,2000,g  8.5,4.0
# From MPEC 2024-F34
P/2020 X1 (ATLAS),e,31.6853,55.9940,323.5154,4.537527,0.1019707,0.36400472,208.7233,02/25.0/2026,2000,g 13.0,4.0
# From MPEC 2024-A43
C/2020 X2 (ATLAS),e,18.1871,105.3512,347.6330,16.56329,0.0146212,0.76838454,28.1560,02/25.0/2026,2000,g 10.6,4.0
# From MPEC 2021-S45
C/2020 X4 (Leonard),e,80.6702,161.9794,140.2572,40.51427,0.0038220,0.87111144,7.3680,02/25.0/2026,2000,g  9.0,4.0
# From MPC181179
C/2020 Y2 (ATLAS),e,101.2456,26.5512,266.4190,1194,0.0000239,0.99736539,0.0000,06/17.5768/2022,2000,g  6.5,4.0
# From MPC181179
C/2021 A1 (Leonard),h,01/04.1487/2022,132.7302,255.8993,225.1102,1.000282,0.614237,2000,8.5,4.0
# From MPC181180
P/2021 A5 (PANSTARRS),e,18.1849,328.6830,62.1598,3.051951,0.1848578,0.14098133,355.8544,02/25.0/2026,2000,g 15.0,4.0
# From MPEC 2024-P23
C/2021 A6 (PANSTARRS),e,75.5546,164.0047,351.6554,19803,0.0000004,0.99959973,0.0000,05/03.4339/2021,2000,g  7.0,4.0
# From MPEC 2022-M88
C/2021 A7 (NEOWISE),e,78.2461,154.3685,356.0274,2075,0.0000104,0.99905247,0.0000,07/15.2197/2021,2000,g 10.0,4.0
# From MPC191586
C/2021 A9 (PANSTARRS),e,158.0177,314.8499,211.6782,46705,0.0000001,0.99983372,0.0000,12/04.5368/2023,2000,g  6.0,4.0
# From MPEC 2021-U31
P/2021 C2 (PANSTARRS),e,21.9332,66.4520,78.7647,9.551019,0.0333910,0.48862377,60.9603,02/25.0/2026,2000,g 12.0,4.0
# From MPC191586
C/2021 C4 (ATLAS),e,132.8228,194.1994,319.9796,2761,0.0000068,0.99837300,0.0000,01/15.6729/2021,2000,g  9.0,4.0
# From MPEC 2024-N80
C/2021 C5 (PANSTARRS),e,50.8077,323.6753,270.8650,1683,0.0000143,0.99807522,0.0000,02/11.0318/2023,2000,g  9.0,4.0
# From MPC191586
C/2021 D2 (ZTF),h,02/03.3632/2022,83.7643,305.6132,125.1001,1.001379,2.952470,2000,9.0,4.0
# From MPEC 2022-UY9
A/2021 E2,e,167.4980,190.7092,342.1817,196.1906,0.0003587,0.98835469,0.0000,12/08.2373/2020,2000,g 15.0,2.0
# From MPEC 2024-GJ3
C/2021 E3 (ZTF),e,112.5204,104.4839,228.7802,3472,0.0000048,0.99948798,0.0000,06/10.5925/2022,2000,g  8.5,4.0
# From MPEC 2024-N80
A/2021 E4,e,116.3982,171.1275,48.3102,510.7614,0.0000854,0.99083230,0.0000,04/24.8825/2022,2000,g 13.5,2.0
# From MPC191586
C/2021 G2 (ATLAS),h,09/09.1547/2024,48.4596,221.0890,343.2670,1.001030,4.982035,2000,5.5,4.0
# From MPEC 2022-X67
C/2021 G3 (PANSTARRS),e,102.8781,147.3256,10.6285,12652,0.0000007,0.99959016,0.0000,10/17.9741/2021,2000,g 10.5,4.0
# From MPEC 2024-F34
P/2021 J3 (ATLAS),e,14.5112,110.9205,125.5466,8.878750,0.0372543,0.44985168,90.6066,02/25.0/2026,2000,g  7.0,4.0
# From MPEC 2022-O08
C/2021 K1 (ATLAS),e,16.2683,140.9318,184.1922,12.58520,0.0220757,0.80111382,38.8661,02/25.0/2026,2000,g 11.0,4.0
# From MPEC 2022-O01
C/2021 K2 (MASTER),h,09/08.9413/2021,100.8720,282.3401,343.2261,1.000082,5.459659,2000,8.0,4.0
# From MPEC 2022-L66
C/2021 K3 (Catalina),h,02/03.3137/2022,134.7803,114.6164,181.9703,1.003771,5.224219,2000,10.0,4.0
# From MPEC 2024-H50
C/2021 L3 (Borisov),h,02/14.9369/2022,78.5216,345.0256,91.6608,1.004202,8.461822,2000,6.0,4.0
# From MPEC 2022-TA0
P/2021 N1 (ZTF),e,11.4853,301.1316,21.2155,2.980502,0.1915446,0.67573941,330.7255,02/25.0/2026,2000,g 19.0,4.0
# From MPEC 2024-GJ3
P/2021 N2 (Fuls),e,13.0584,221.7537,177.6492,6.947873,0.0538178,0.45176858,84.1892,02/25.0/2026,2000,g  9.5,4.0
# From MPEC 2022-YB4
C/2021 N3 (PANSTARRS),e,26.7712,337.5424,304.5211,138.2774,0.0006061,0.95872494,1.2237,02/25.0/2026,2000,g  8.5,4.0
# From MPEC 2024-F34
C/2021 P1 (PANSTARRS),e,51.6075,359.7262,40.5303,2334,0.0000087,0.99812249,0.0000,06/02.3220/2022,2000,g 11.0,4.0
# From MPC185656
C/2021 P2 (PANSTARRS),e,150.0459,32.1020,76.6939,11942,0.0000008,0.99957580,0.0000,01/22.9918/2023,2000,g  9.0,4.0
# From MPEC 2024-GJ3
P/2021 P3 (PANSTARRS),e,27.1645,358.2430,333.9471,4.411653,0.1063658,0.33847135,184.4974,02/25.0/2026,2000,g 14.0,4.0
# From MPEC 2023-A50
C/2021 P4 (ATLAS),e,56.4115,347.9708,175.8278,299.7932,0.0001899,0.99640302,0.0000,07/30.5543/2022,2000,g  9.5,4.0
# From MPEC 2023-FK0
C/2021 Q3 (ATLAS),e,77.7072,307.9047,114.1630,74.64650,0.0015282,0.93018373,2.2791,02/25.0/2026,2000,g  8.0,4.0
# From MPC188409
C/2021 Q4 (Fuls),h,06/10.1866/2023,71.5547,183.3366,147.0085,1.000386,7.563396,2000,6.0,4.0
# From MPC181180
P/2021 Q5 (ATLAS),e,10.7377,239.7314,180.9730,3.284214,0.1655987,0.62418443,271.3054,02/25.0/2026,2000,g 15.0,4.0
# From MPC188409
C/2021 Q6 (PANSTARRS),h,03/25.3045/2024,161.8275,133.5734,141.0618,1.003482,8.707390,2000,6.0,4.0
# From MPEC 2023-FK0
C/2021 QM45 (PANSTARRS),e,22.7865,354.5907,72.9656,413.6108,0.0001172,0.99327639,0.0000,08/13.5491/2022,2000,g 11.0,4.0
# From MPEC 2022-X67
P/2021 R1 (PANSTARRS),e,5.5408,143.0523,219.9590,8.235301,0.0417047,0.40646663,64.3428,02/25.0/2026,2000,g 11.0,4.0
# From MPEC 2022-X67
C/2021 R2 (PANSTARRS),e,134.4778,16.3606,32.5620,19662,0.0000004,0.99962794,0.0000,12/28.6090/2021,2000,g  7.5,4.0
# From MPEC 2021-W31
P/2021 R3 (PANSTARRS),e,19.9454,304.1986,2.5743,3.767752,0.1347661,0.33223168,234.0530,02/25.0/2026,2000,g 16.0,4.0
# From MPEC 2024-JU4
P/2021 R5 (Rankin),e,7.8528,219.9688,167.6093,4.799108,0.0937483,0.30557035,141.1157,02/25.0/2026,2000,g 12.0,4.0
# From MPEC 2022-X67
C/2021 R7 (PANSTARRS),e,158.8812,170.2252,140.4369,1095,0.0000272,0.99483781,0.0000,04/17.8329/2021,2000,g 10.5,4.0
# From MPEC 2021-Y10
P/2021 R8 (Sheppard),e,2.2026,167.0558,190.7994,3.020671,0.1877366,0.29240253,300.9018,02/25.0/2026,2000,g 18.5,4.0
# From MPEC 2023-J29
C/2021 S1 (ATLAS),h,03/02.1699/2022,52.0333,299.8493,148.3553,1.002966,6.128861,2000,7.0,4.0
# From MPC191586
C/2021 S3 (PANSTARRS),e,58.5589,215.5850,6.8294,14413,0.0000006,0.99990848,0.0000,02/14.6602/2024,2000,g  5.5,4.0
# From MPC184409
C/2021 S4 (Tsuchinshan),e,17.4825,5.4352,73.0973,152.3221,0.0005243,0.95605102,0.4105,02/25.0/2026,2000,g  6.5,4.0
# From MPC184409
C/2021 T4 (Lemmon),e,160.7788,257.8834,329.7331,2785,0.0000067,0.99946845,0.0000,07/31.3929/2023,2000,g  7.5,4.0
# From MPEC 2024-JU4
P/2021 V2 (Fuls),e,12.6893,232.2736,259.9504,9.098221,0.0359145,0.61546914,40.5733,02/25.0/2026,2000,g 10.0,4.0
# From MPEC 2024-TD8
C/2021 X1 (Maury-Attard),h,05/27.4251/2023,140.1110,10.6404,334.6463,1.000849,3.234738,2000,7.0,4.0
